[{"OBJECT_NAME":"STARLINK-1166","OBJECT_ID":"2020-006S","EPOCH":"2026-03-09T23:09:54.990720","MEAN_MOTION":15.45354542,"ECCENTRICITY":0.00047188,"INCLINATION":53.0527,"RA_OF_ASC_NODE":271.3766,"ARG_OF_PERICENTER":148.0301,"MEAN_ANOMALY":212.0992,"EPHEMERIS_TYPE":0,"CLASSIFICATION_TYPE":"U","NORAD_CAT_ID":45060,"ELEMENT_SET_NO":999,"REV_AT_EPOCH":33670,"BSTAR":0.0022317657,"MEAN_MOTION_DOT":0.00109358,"MEAN_MOTION_DDOT":0},{"OBJECT_NAME":"OBJECT AK","OBJECT_ID":"2024-199AK","EPOCH":"2026-03-09T21:33:12.117024","MEAN_MOTION":15.45335097,"ECCENTRICITY":0.00044603,"INCLINATION":97.3127,"RA_OF_ASC_NODE":302.7659,"ARG_OF_PERICENTER":300.4688,"MEAN_ANOMALY":59.612,"EPHEMERIS_TYPE":0,"CLASSIFICATION_TYPE":"U","NORAD_CAT_ID":61768,"ELEMENT_SET_NO":999,"REV_AT_EPOCH":11898,"BSTAR":0.00054405421,"MEAN_MOTION_DOT":0.00025914,"MEAN_MOTION_DDOT":0}]
